HAWK-11A                
1 62382U 24247F   26068.51231358  .00009457  00000+0  34106-3 0  9991
2 62382  44.9941 114.3328 0005466 327.3713  32.6832 15.28849427 67741
STARLINK-33882          
1 63788U 25091P   26067.97865993  .00031961  00000+0  11651-2 0  9991
2 63788  43.0012  56.5202 0001337 173.0414 187.0457 15.27604135 48781
